IRIDIUM 171             
1 43929U 19002H   25346.73984854  .00000320  00000+0  10725-3 0  9999
2 43929  86.3975  71.8031 0002339 100.2549 259.8911 14.34217666362236
IRIDIUM 170             
1 43930U 19002J   25346.79771708  .00001745  00000+0  27278-3 0  9992
2 43930  86.6087  71.4912 0002250  91.0604 269.0871 14.72262973371837
IRIDIUM 167             
1 43931U 19002K   25346.94281174  .00000173  00000+0  54741-4 0  9993
2 43931  86.3966  71.4531 0002427 106.7834 253.3629 14.34218582362262
IRIDIUM 181             
1 56726U 23068S   25346.95704165  .00000645  00000+0  18574-3 0  9994
2 56726  86.4511 134.6348 0002413  85.4691 274.6786 14.43306550135577
IRIDIUM 177             
1 56727U 23068T   25346.74212813  .00001144  00000+0  14710-3 0  9999
2 56727  86.1966  57.3289 0002375  85.1718 274.9774 14.80221259138787
IRIDIUM 174             
1 56728U 23068U   25346.98925889  .00002754  00000+0  43281-3 0  9993
2 56728  86.6095  71.5402 0002216  87.0423 273.1048 14.72250095138628
IRIDIUM 178             
1 56729U 23068V   25346.86644928  .00002168  00000+0  28184-3 0  9997
2 56729  86.6535 103.2454 0002550  99.0268 261.1242 14.80234491138803
IRIDIUM 179             
1 56730U 23068W   25346.92867699  .00003527  00000+0  46071-3 0  9993
2 56730  86.6772 111.6432 0002322  88.7807 271.3680 14.80225812138815
